{"type": "FeatureCollection", "features": [ {"type": "Feature", "properties": {"norad_id": 41836, "name": "HIMAWARI-9", "group": "weather", "lat": -0.017503083515161257, "lon": 9.430243038530435, "alt_km": 35786.49191578261, "timestamp": "2025-12-12T09:49:08.370646+00:00", "meta": {"OBJECT_NAME": "HIMAWARI-9", "OBJECT_ID": "2016-064A", "EPOCH": "2025-12-11T21:01:46.862112", "MEAN_MOTION": 1.00273832, "ECCENTRICITY": 0.0001213, "INCLINATION": 0.0342, "RA_OF_ASC_NODE": 93.1676, "ARG_OF_PERICENTER": 175.9777, "MEAN_ANOMALY": 267.9081, "EPHEMERIS_TYPE": 0, "CLASSIFICATION_TYPE": "U", "NORAD_CAT_ID": 41836, "ELEMENT_SET_NO": 999, "REV_AT_EPOCH": 3333, "BSTAR": 0, "MEAN_MOTION_DOT": -2.66e-06, "MEAN_MOTION_DDOT": 0}, "tle": {"line1": "1 41836U 16064A   25345.87623683 -.00000266  00000+0  00000+0 0  9994", "line2": "2 41836   0.0342  93.1676 0001213 175.9777 267.9081  1.00273832 33336"}}, "geometry": {"type": "Point", "coordinates": [9.430243038530435, -0.017503083515161257]}}, {"type": "Feature", "properties": {"norad_id": 41866, "name": "GOES 16", "group": "weather", "lat": 0.03133472858417332, "lon": 123.93598536028097, "alt_km": 35796.53367366622, "timestamp": "2025-12-12T09:49:08.370659+00:00", "meta": {"OBJECT_NAME": "GOES 16", "OBJECT_ID": "2016-071A", "EPOCH": "2025-12-12T03:38:38.555232", "MEAN_MOTION": 1.00271517, "ECCENTRICITY": 0.0003266, "INCLINATION": 0.0622, "RA_OF_ASC_NODE": 106.0172, "ARG_OF_PERICENTER": 156.6087, "MEAN_ANOMALY": 128.4629, "EPHEMERIS_TYPE": 0, "CLASSIFICATION_TYPE": "U", "NORAD_CAT_ID": 41866, "ELEMENT_SET_NO": 999, "REV_AT_EPOCH": 3322, "BSTAR": 0, "MEAN_MOTION_DOT": -8.1e-07, "MEAN_MOTION_DDOT": 0}, "tle": {"line1": "1 41866U 16071A   25346.15183513 -.00000081  00000+0  00000+0 0  9995", "line2": "2 41866   0.0622 106.0172 0003266 156.6087 128.4629  1.00271517 33220"}}, "geometry": {"type": "Point", "coordinates": [123.93598536028097, 0.03133472858417332]}}, {"type": "Feature", "properties": {"norad_id": 41882, "name": "FENGYUN 4A", "group": "weather", "lat": -1.844263443046111, "lon": -7.4837160257208115, "alt_km": 35798.40928912357, "timestamp": "2025-12-12T09:49:08.370671+00:00", "meta": {"OBJECT_NAME": "FENGYUN 4A", "OBJECT_ID": "2016-077A", "EPOCH": "2025-12-11T22:39:37.492416", "MEAN_MOTION": 1.0027003, "ECCENTRICITY": 0.0004902, "INCLINATION": 1.8474, "RA_OF_ASC_NODE": 82.3949, "ARG_OF_PERICENTER": 146.0972, "MEAN_ANOMALY": 316.1466, "EPHEMERIS_TYPE": 0, "CLASSIFICATION_TYPE": "U", "NORAD_CAT_ID": 41882, "ELEMENT_SET_NO": 999, "REV_AT_EPOCH": 3305, "BSTAR": 0, "MEAN_MOTION_DOT": -3.48e-06, "MEAN_MOTION_DDOT": 0}, "tle": {"line1": "1 41882U 16077A   25345.94418394 -.00000348  00000+0  00000+0 0  9999", "line2": "2 41882   1.8474  82.3949 0004902 146.0972 316.1466  1.00270030 33059"}}, "geometry": {"type": "Point", "coordinates": [-7.4837160257208115, -1.844263443046111]}}, {"type": "Feature", "properties": {"norad_id": 41884, "name": "CYGFM05", "group": "weather", "lat": -22.89896661243985, "lon": 12.092865971732111, "alt_km": 429.88483646518307, "timestamp": "2025-12-12T09:49:08.370683+00:00", "meta": {"OBJECT_NAME": "CYGFM05", "OBJECT_ID": "2016-078A", "EPOCH": "2025-12-11T12:19:44.236416", "MEAN_MOTION": 15.47567747, "ECCENTRICITY": 0.00099326, "INCLINATION": 34.9601, "RA_OF_ASC_NODE": 55.1392, "ARG_OF_PERICENTER": 172.194, "MEAN_ANOMALY": 187.8938, "EPHEMERIS_TYPE": 0, "CLASSIFICATION_TYPE": "U", "NORAD_CAT_ID": 41884, "ELEMENT_SET_NO": 999, "REV_AT_EPOCH": 49957, "BSTAR": 0.00058459472, "MEAN_MOTION_DOT": 0.00031157, "MEAN_MOTION_DDOT": 0}, "tle": {"line1": "1 41884U 16078A   25345.51370644  .00031157  00000+0  58459-3 0  9996", "line2": "2 41884  34.9601  55.1392 0009932 172.1940 187.8938 15.47567747499573"}}, "geometry": {"type": "Point", "coordinates": [12.092865971732111, -22.89896661243985]}}, {"type": "Feature", "properties": {"norad_id": 41885, "name": "CYGFM04", "group": "weather", "lat": -7.56969728189282, "lon": -144.94810508848596, "alt_km": 409.3917738385808, "timestamp": "2025-12-12T09:49:08.370694+00:00", "meta": {"OBJECT_NAME": "CYGFM04", "OBJECT_ID": "2016-078B", "EPOCH": "2025-12-12T04:21:11.143008", "MEAN_MOTION": 15.50317395, "ECCENTRICITY": 0.0009415, "INCLINATION": 34.9354, "RA_OF_ASC_NODE": 25.5711, "ARG_OF_PERICENTER": 205.7202, "MEAN_ANOMALY": 154.3053, "EPHEMERIS_TYPE": 0, "CLASSIFICATION_TYPE": "U", "NORAD_CAT_ID": 41885, "ELEMENT_SET_NO": 999, "REV_AT_EPOCH": 49985, "BSTAR": 0.00048803, "MEAN_MOTION_DOT": 0.00028639, "MEAN_MOTION_DDOT": 0}, "tle": {"line1": "1 41885U 16078B   25346.18137897  .00028639  00000+0  48803-3 0  9995", "line2": "2 41885  34.9354  25.5711 0009415 205.7202 154.3053 15.50317395499859"}}, "geometry": {"type": "Point", "coordinates": [-144.94810508848596, -7.56969728189282]}}, {"type": "Feature", "properties": {"norad_id": 41886, "name": "CYGFM02", "group": "weather", "lat": -13.846097592999945, "lon": -136.92224421020188, "alt_km": 404.72778742734044, "timestamp": "2025-12-12T09:49:08.370705+00:00", "meta": {"OBJECT_NAME": "CYGFM02", "OBJECT_ID": "2016-078C", "EPOCH": "2025-12-12T04:18:32.700096", "MEAN_MOTION": 15.5169395, "ECCENTRICITY": 0.0011072, "INCLINATION": 34.9444, "RA_OF_ASC_NODE": 23.9168, "ARG_OF_PERICENTER": 205.4105, "MEAN_ANOMALY": 154.6074, "EPHEMERIS_TYPE": 0, "CLASSIFICATION_TYPE": "U", "NORAD_CAT_ID": 41886, "ELEMENT_SET_NO": 999, "REV_AT_EPOCH": 49998, "BSTAR": 0.00049312, "MEAN_MOTION_DOT": 0.0003043, "MEAN_MOTION_DDOT": 0}, "tle": {"line1": "1 41886U 16078C   25346.17954514  .00030430  00000+0  49312-3 0  9996", "line2": "2 41886  34.9444  23.9168 0011072 205.4105 154.6074 15.51693950499984"}}, "geometry": {"type": "Point", "coordinates": [-136.92224421020188, -13.846097592999945]}}, {"type": "Feature", "properties": {"norad_id": 41887, "name": "CYGFM01", "group": "weather", "lat": 0.33995682153282003, "lon": 52.12980771001862, "alt_km": 427.2349244686011, "timestamp": "2025-12-12T09:49:08.370716+00:00", "meta": {"OBJECT_NAME": "CYGFM01", "OBJECT_ID": "2016-078D", "EPOCH": "2025-12-11T13:41:51.415008", "MEAN_MOTION": 15.48145499, "ECCENTRICITY": 0.0009499, "INCLINATION": 34.9432, "RA_OF_ASC_NODE": 57.1248, "ARG_OF_PERICENTER": 164.4483, "MEAN_ANOMALY": 195.6532, "EPHEMERIS_TYPE": 0, "CLASSIFICATION_TYPE": "U", "NORAD_CAT_ID": 41887, "ELEMENT_SET_NO": 999, "REV_AT_EPOCH": 49952, "BSTAR": 0.00051764, "MEAN_MOTION_DOT": 0.00028132, "MEAN_MOTION_DDOT": 0}, "tle": {"line1": "1 41887U 16078D   25345.57073397  .00028132  00000+0  51764-3 0  9991", "line2": "2 41887  34.9432  57.1248 0009499 164.4483 195.6532 15.48145499499523"}}, "geometry": {"type": "Point", "coordinates": [52.12980771001862, 0.33995682153282003]}}, {"type": "Feature", "properties": {"norad_id": 41888, "name": "CYGFM08", "group": "weather", "lat": 24.98107803917761, "lon": 76.48904956190216, "alt_km": 420.31794730540605, "timestamp": "2025-12-12T09:49:08.370728+00:00", "meta": {"OBJECT_NAME": "CYGFM08", "OBJECT_ID": "2016-078E", "EPOCH": "2025-12-12T03:25:44.261760", "MEAN_MOTION": 15.4938026, "ECCENTRICITY": 0.0011476, "INCLINATION": 34.9463, "RA_OF_ASC_NODE": 36.3827, "ARG_OF_PERICENTER": 193.9112, "MEAN_ANOMALY": 166.1295, "EPHEMERIS_TYPE": 0, "CLASSIFICATION_TYPE": "U", "NORAD_CAT_ID": 41888, "ELEMENT_SET_NO": 999, "REV_AT_EPOCH": 49984, "BSTAR": 0.00048918, "MEAN_MOTION_DOT": 0.00027787, "MEAN_MOTION_DDOT": 0}, "tle": {"line1": "1 41888U 16078E   25346.14287340  .00027787  00000+0  48918-3 0  9993", "line2": "2 41888  34.9463  36.3827 0011476 193.9112 166.1295 15.49380260499846"}}, "geometry": {"type": "Point", "coordinates": [76.48904956190216, 24.98107803917761]}}, {"type": "Feature", "properties": {"norad_id": 41890, "name": "CYGFM07", "group": "weather", "lat": 18.9765549184748, "lon": 53.11900608073697, "alt_km": 419.56914736683575, "timestamp": "2025-12-12T09:49:08.370751+00:00", "meta": {"OBJECT_NAME": "CYGFM07", "OBJECT_ID": "2016-078G", "EPOCH": "2025-12-12T03:29:13.127712", "MEAN_MOTION": 15.49961909, "ECCENTRICITY": 0.0009811, "INCLINATION": 34.9485, "RA_OF_ASC_NODE": 25.3509, "ARG_OF_PERICENTER": 210.9906, "MEAN_ANOMALY": 149.0238, "EPHEMERIS_TYPE": 0, "CLASSIFICATION_TYPE": "U", "NORAD_CAT_ID": 41890, "ELEMENT_SET_NO": 999, "REV_AT_EPOCH": 49986, "BSTAR": 0.00049342, "MEAN_MOTION_DOT": 0.00028596, "MEAN_MOTION_DDOT": 0}, "tle": {"line1": "1 41890U 16078G   25346.14529083  .00028596  00000+0  49342-3 0  9990", "line2": "2 41890  34.9485  25.3509 0009811 210.9906 149.0238 15.49961909499863"}}, "geometry": {"type": "Point", "coordinates": [53.11900608073697, 18.9765549184748]}}, {"type": "Feature", "properties": {"norad_id": 41891, "name": "CYGFM03", "group": "weather", "lat": -25.849481682531525, "lon": -110.52417140622407, "alt_km": 413.10446380629946, "timestamp": "2025-12-12T09:49:08.370763+00:00", "meta": {"OBJECT_NAME": "CYGFM03", "OBJECT_ID": "2016-078H", "EPOCH": "2025-12-12T04:11:45.249792", "MEAN_MOTION": 15.49862705, "ECCENTRICITY": 0.0009234, "INCLINATION": 34.9437, "RA_OF_ASC_NODE": 27.0752, "ARG_OF_PERICENTER": 198.9395, "MEAN_ANOMALY": 161.0985, "EPHEMERIS_TYPE": 0, "CLASSIFICATION_TYPE": "U", "NORAD_CAT_ID": 41891, "ELEMENT_SET_NO": 999, "REV_AT_EPOCH": 49984, "BSTAR": 0.00048792, "MEAN_MOTION_DOT": 0.00028169, "MEAN_MOTION_DDOT": 0}, "tle": {"line1": "1 41891U 16078H   25346.17482928  .00028169  00000+0  48792-3 0  9994", "line2": "2 41891  34.9437  27.0752 0009234 198.9395 161.0985 15.49862705499841"}}, "geometry": {"type": "Point", "coordinates": [-110.52417140622407, -25.849481682531525]}}]}